{
  "type": "FeatureCollection",
  "features": [
    {
      "type": "Feature",
      "geometry": {
        "type": "Point",
        "coordinates": [
          121.5493054,
          25.0556512
        ]
      },
      "properties": {
        "行政區": 63000010,
        "院所": "醫院",
        "機構類別": "醫學中心",
        "院所名稱": "長庚醫療財團法人台北長庚紀念醫院",
        "地址": "臺北市松山區敦化北路199號",
        "緯度": 25.0556512,
        "經度": 121.5493054,
        "電話": "(02)27135211",
        "緯度.1": 25.0556512,
        "經度.1": 121.5493054,
        "district": "松山區"
      }
    },
    {
      "type": "Feature",
      "geometry": {
        "type": "Point",
        "coordinates": [
          121.5474831,
          25.0476829
        ]
      },
      "properties": {
        "行政區": 63000010,
        "院所": "醫院",
        "機構類別": "區域醫院",
        "院所名稱": "基督復臨安息日會醫療財團法人臺安醫院",
        "地址": "臺北市松山區八德路二段424號",
        "緯度": 25.0476829,
        "經度": 121.5474831,
        "電話": "(02)27718151",
        "緯度.1": 25.0476829,
        "經度.1": 121.5474831,
        "district": "松山區"
      }
    },
    {
      "type": "Feature",
      "geometry": {
        "type": "Point",
        "coordinates": [
          121.5576579,
          25.0544026
        ]
      },
      "properties": {
        "行政區": 63000010,
        "院所": "醫院",
        "機構類別": "區域醫院",
        "院所名稱": "三軍總醫院松山分院附設民眾診療服務處",
        "地址": "臺北市松山區健康路131號",
        "緯度": 25.0544026,
        "經度": 121.5576579,
        "電話": "(02)27642151",
        "緯度.1": 25.0544026,
        "經度.1": 121.5576579,
        "district": "松山區"
      }
    },
    {
      "type": "Feature",
      "geometry": {
        "type": "Point",
        "coordinates": [
          121.5575603,
          25.0499703
        ]
      },
      "properties": {
        "行政區": 63000010,
        "院所": "醫院",
        "機構類別": "地區醫院",
        "院所名稱": "博仁綜合醫院",
        "地址": "臺北市松山區光復北路66號",
        "緯度": 25.0499703,
        "經度": 121.5575603,
        "電話": "(02)25786677",
        "緯度.1": 25.0499703,
        "經度.1": 121.5575603,
        "district": "松山區"
      }
    },
    {
      "type": "Feature",
      "geometry": {
        "type": "Point",
        "coordinates": [
          121.5773136,
          25.0496778
        ]
      },
      "properties": {
        "行政區": 63000010,
        "院所": "診所",
        "機構類別": "門診部",
        "院所名稱": "臺北市立聯合醫院附設松山門診部",
        "地址": "臺北市松山區八德路四段694號",
        "緯度": 25.0496778,
        "經度": 121.5773136,
        "電話": "(02)27653147",
        "緯度.1": 25.0496778,
        "經度.1": 121.5773136,
        "district": "松山區"
      }
    },
    {
      "type": "Feature",
      "geometry": {
        "type": "Point",
        "coordinates": [
          121.5484626,
          25.053688
        ]
      },
      "properties": {
        "行政區": 63000010,
        "院所": "診所",
        "機構類別": "基層診所",
        "院所名稱": "安兒康小兒專科診所",
        "地址": "臺北市松山區敦化北路118號1樓",
        "緯度": 25.053688,
        "經度": 121.5484626,
        "電話": "(02)77287688",
        "緯度.1": 25.053688,
        "經度.1": 121.5484626,
        "district": "松山區"
      }
    },
    {
      "type": "Feature",
      "geometry": {
        "type": "Point",
        "coordinates": [
          121.5643397,
          25.0524026
        ]
      },
      "properties": {
        "行政區": 63000010,
        "院所": "診所",
        "機構類別": "基層診所",
        "院所名稱": "江崇萍小兒科診所",
        "地址": "臺北市松山區南京東路五段251巷24弄27號1樓",
        "緯度": 25.0524026,
        "經度": 121.5643397,
        "電話": "(02)27632260",
        "緯度.1": 25.0524026,
        "經度.1": 121.5643397,
        "district": "松山區"
      }
    },
    {
      "type": "Feature",
      "geometry": {
        "type": "Point",
        "coordinates": [
          121.5571206,
          25.0482731
        ]
      },
      "properties": {
        "行政區": 63000010,
        "院所": "診所",
        "機構類別": "基層診所",
        "院所名稱": "佑家診所",
        "地址": "臺北市松山區八德路三段233號",
        "緯度": 25.0482731,
        "經度": 121.5571206,
        "電話": "(02)25785658",
        "緯度.1": 25.0482731,
        "經度.1": 121.5571206,
        "district": "松山區"
      }
    },
    {
      "type": "Feature",
      "geometry": {
        "type": "Point",
        "coordinates": [
          121.5561799,
          25.0481627
        ]
      },
      "properties": {
        "行政區": 63000010,
        "院所": "診所",
        "機構類別": "基層診所",
        "院所名稱": "車參薇小兒科診所",
        "地址": "臺北市松山區八德路三段195號１樓",
        "緯度": 25.0481627,
        "經度": 121.5561799,
        "電話": "(02)25770101",
        "緯度.1": 25.0481627,
        "經度.1": 121.5561799,
        "district": "松山區"
      }
    },
    {
      "type": "Feature",
      "geometry": {
        "type": "Point",
        "coordinates": [
          121.5600709,
          25.05879
        ]
      },
      "properties": {
        "行政區": 63000010,
        "院所": "診所",
        "機構類別": "基層診所",
        "院所名稱": "詹前俊小兒科診所",
        "地址": "臺北市松山區民生東路五段105號1樓",
        "緯度": 25.05879,
        "經度": 121.5600709,
        "電話": "(02)27653039",
        "緯度.1": 25.05879,
        "經度.1": 121.5600709,
        "district": "松山區"
      }
    },
    {
      "type": "Feature",
      "geometry": {
        "type": "Point",
        "coordinates": [
          121.5444487,
          25.0580313
        ]
      },
      "properties": {
        "行政區": 63000010,
        "院所": "診所",
        "機構類別": "基層診所",
        "院所名稱": "悅昇小兒科診所",
        "地址": "臺北市松山區民生東路三段101號2樓",
        "緯度": 25.0580313,
        "經度": 121.5444487,
        "電話": "(02)27125977",
        "緯度.1": 25.0580313,
        "經度.1": 121.5444487,
        "district": "松山區"
      }
    },
    {
      "type": "Feature",
      "geometry": {
        "type": "Point",
        "coordinates": [
          121.563012,
          25.0269555
        ]
      },
      "properties": {
        "行政區": 63000020,
        "院所": "醫院",
        "機構類別": "區域醫院",
        "院所名稱": "臺北醫學大學附設醫院",
        "地址": "臺北市信義區吳興街252號",
        "緯度": 25.0269555,
        "經度": 121.563012,
        "電話": "(02)27372181",
        "緯度.1": 25.0269555,
        "經度.1": 121.563012,
        "district": "信義區"
      }
    },
    {
      "type": "Feature",
      "geometry": {
        "type": "Point",
        "coordinates": [
          121.5830385,
          25.0385914
        ]
      },
      "properties": {
        "行政區": 63000020,
        "院所": "診所",
        "機構類別": "門診部",
        "院所名稱": "臺北市立聯合醫院附設信義門診部",
        "地址": "臺北市信義區大道路116號1樓",
        "緯度": 25.0385914,
        "經度": 121.5830385,
        "電話": "(02)87804152",
        "緯度.1": 25.0385914,
        "經度.1": 121.5830385,
        "district": "信義區"
      }
    },
    {
      "type": "Feature",
      "geometry": {
        "type": "Point",
        "coordinates": [
          121.575595,
          25.0482589
        ]
      },
      "properties": {
        "行政區": 63000020,
        "院所": "診所",
        "機構類別": "基層診所",
        "院所名稱": "明輝診所",
        "地址": "臺北市信義區松隆路282-3號",
        "緯度": 25.0482589,
        "經度": 121.575595,
        "電話": "(02)87871235",
        "緯度.1": 25.0482589,
        "經度.1": 121.575595,
        "district": "信義區"
      }
    },
    {
      "type": "Feature",
      "geometry": {
        "type": "Point",
        "coordinates": [
          121.5811319,
          25.036847
        ]
      },
      "properties": {
        "行政區": 63000020,
        "院所": "診所",
        "機構類別": "基層診所",
        "院所名稱": "林應然小兒科診所",
        "地址": "臺北市信義區福德街75號",
        "緯度": 25.036847,
        "經度": 121.5811319,
        "電話": "(02)27595328",
        "緯度.1": 25.036847,
        "經度.1": 121.5811319,
        "district": "信義區"
      }
    },
    {
      "type": "Feature",
      "geometry": {
        "type": "Point",
        "coordinates": [
          121.5645429,
          25.0279119
        ]
      },
      "properties": {
        "行政區": 63000020,
        "院所": "診所",
        "機構類別": "基層診所",
        "院所名稱": "長風小兒科診所",
        "地址": "臺北市信義區莊敬路351號",
        "緯度": 25.0279119,
        "經度": 121.5645429,
        "電話": "(02)27227943",
        "緯度.1": 25.0279119,
        "經度.1": 121.5645429,
        "district": "信義區"
      }
    },
    {
      "type": "Feature",
      "geometry": {
        "type": "Point",
        "coordinates": [
          121.5768198,
          25.0383995
        ]
      },
      "properties": {
        "行政區": 63000020,
        "院所": "診所",
        "機構類別": "基層診所",
        "院所名稱": "信義邱婦產科",
        "地址": "臺北市信義區虎林街198號",
        "緯度": 25.0383995,
        "經度": 121.5768198,
        "電話": "(02)27278275",
        "緯度.1": 25.0383995,
        "經度.1": 121.5768198,
        "district": "信義區"
      }
    },
    {
      "type": "Feature",
      "geometry": {
        "type": "Point",
        "coordinates": [
          121.5694373,
          25.0238287
        ]
      },
      "properties": {
        "行政區": 63000020,
        "院所": "診所",
        "機構類別": "基層診所",
        "院所名稱": "張育驍診所",
        "地址": "臺北市信義區吳興街467巷2弄6號1樓",
        "緯度": 25.0238287,
        "經度": 121.5694373,
        "電話": "(02)27296611",
        "緯度.1": 25.0238287,
        "經度.1": 121.5694373,
        "district": "信義區"
      }
    },
    {
      "type": "Feature",
      "geometry": {
        "type": "Point",
        "coordinates": [
          121.578016,
          25.0438009
        ]
      },
      "properties": {
        "行政區": 63000020,
        "院所": "診所",
        "機構類別": "基層診所",
        "院所名稱": "黃啟彰診所",
        "地址": "臺北市信義區松山路261-1號",
        "緯度": 25.0438009,
        "經度": 121.578016,
        "電話": "(02)27696218",
        "緯度.1": 25.0438009,
        "經度.1": 121.578016,
        "district": "信義區"
      }
    },
    {
      "type": "Feature",
      "geometry": {
        "type": "Point",
        "coordinates": [
          121.5547681,
          25.0364269
        ]
      },
      "properties": {
        "行政區": 63000030,
        "院所": "醫院",
        "機構類別": "醫學中心",
        "院所名稱": "國泰醫療財團法人國泰綜合醫院",
        "地址": "臺北市大安區仁愛路四段280號",
        "緯度": 25.0364269,
        "經度": 121.5547681,
        "電話": "(02)27082121",
        "緯度.1": 25.0364269,
        "經度.1": 121.5547681,
        "district": "大安區"
      }
    },
    {
      "type": "Feature",
      "geometry": {
        "type": "Point",
        "coordinates": [
          121.5453853,
          25.037298
        ]
      },
      "properties": {
        "行政區": 63000030,
        "院所": "醫院",
        "機構類別": "區域-院區",
        "院所名稱": "臺北市立聯合醫院仁愛院區",
        "地址": "臺北市大安區仁愛路四段10號",
        "緯度": 25.037298,
        "經度": 121.5453853,
        "電話": "(02)27093600",
        "緯度.1": 25.037298,
        "經度.1": 121.5453853,
        "district": "大安區"
      }
    },
    {
      "type": "Feature",
      "geometry": {
        "type": "Point",
        "coordinates": [
          121.5499289,
          25.036515
        ]
      },
      "properties": {
        "行政區": 63000030,
        "院所": "醫院",
        "機構類別": "地區醫院",
        "院所名稱": "中山醫療社團法人中山醫院",
        "地址": "臺北市大安區仁愛路四段112巷11號",
        "緯度": 25.036515,
        "經度": 121.5499289,
        "電話": "(02)27081166",
        "緯度.1": 25.036515,
        "經度.1": 121.5499289,
        "district": "大安區"
      }
    },
    {
      "type": "Feature",
      "geometry": {
        "type": "Point",
        "coordinates": [
          121.544274,
          25.021577
        ]
      },
      "properties": {
        "行政區": 63000030,
        "院所": "診所",
        "機構類別": "門診部",
        "院所名稱": "臺北市立聯合醫院附設大安門診部",
        "地址": "臺北市大安區辛亥路三段15號1樓",
        "緯度": 25.021577,
        "經度": 121.544274,
        "電話": "(02)27390997",
        "緯度.1": 25.021577,
        "經度.1": 121.544274,
        "district": "大安區"
      }
    },
    {
      "type": "Feature",
      "geometry": {
        "type": "Point",
        "coordinates": [
          121.534529,
          25.025638
        ]
      },
      "properties": {
        "行政區": 63000030,
        "院所": "診所",
        "機構類別": "基層診所",
        "院所名稱": "小禾馨小兒專科診所",
        "地址": "臺北市大安區新生南路三段4號1樓",
        "緯度": 25.025638,
        "經度": 121.534529,
        "電話": "(02)23698833",
        "緯度.1": 25.025638,
        "經度.1": 121.534529,
        "district": "大安區"
      }
    },
    {
      "type": "Feature",
      "geometry": {
        "type": "Point",
        "coordinates": [
          121.5371884,
          25.0252194
        ]
      },
      "properties": {
        "行政區": 63000030,
        "院所": "診所",
        "機構類別": "基層診所",
        "院所名稱": "尹書田醫療財團法人書田泌尿科眼科診所",
        "地址": "臺北市大安區建國南路二段276號",
        "緯度": 25.0252194,
        "經度": 121.5371884,
        "電話": "(02)23690211",
        "緯度.1": 25.0252194,
        "經度.1": 121.5371884,
        "district": "大安區"
      }
    },
    {
      "type": "Feature",
      "geometry": {
        "type": "Point",
        "coordinates": [
          121.534547,
          25.0258209
        ]
      },
      "properties": {
        "行政區": 63000030,
        "院所": "診所",
        "機構類別": "基層診所",
        "院所名稱": "禾馨新生婦幼診所",
        "地址": "臺北市大安區新生南路三段2號",
        "緯度": 25.0258209,
        "經度": 121.534547,
        "電話": "(02)23682333",
        "緯度.1": 25.0258209,
        "經度.1": 121.534547,
        "district": "大安區"
      }
    },
    {
      "type": "Feature",
      "geometry": {
        "type": "Point",
        "coordinates": [
          121.5461966,
          25.0249137
        ]
      },
      "properties": {
        "行政區": 63000030,
        "院所": "診所",
        "機構類別": "基層診所",
        "院所名稱": "全家聯合診所",
        "地址": "臺北市大安區和平東路二段353號",
        "緯度": 25.0249137,
        "經度": 121.5461966,
        "電話": "(02)27067575",
        "緯度.1": 25.0249137,
        "經度.1": 121.5461966,
        "district": "大安區"
      }
    },
    {
      "type": "Feature",
      "geometry": {
        "type": "Point",
        "coordinates": [
          121.5469852,
          25.0244621
        ]
      },
      "properties": {
        "行政區": 63000030,
        "院所": "診所",
        "機構類別": "基層診所",
        "院所名稱": "那明珠診所",
        "地址": "臺北市大安區和平東路三段8號",
        "緯度": 25.0244621,
        "經度": 121.5469852,
        "電話": "(02)27360589",
        "緯度.1": 25.0244621,
        "經度.1": 121.5469852,
        "district": "大安區"
      }
    },
    {
      "type": "Feature",
      "geometry": {
        "type": "Point",
        "coordinates": [
          121.5473509,
          25.0281223
        ]
      },
      "properties": {
        "行政區": 63000030,
        "院所": "診所",
        "機構類別": "基層診所",
        "院所名稱": "松德診所",
        "地址": "臺北市大安區四維路170巷16號1樓",
        "緯度": 25.0281223,
        "經度": 121.5473509,
        "電話": "(02)27073326",
        "緯度.1": 25.0281223,
        "經度.1": 121.5473509,
        "district": "大安區"
      }
    },
    {
      "type": "Feature",
      "geometry": {
        "type": "Point",
        "coordinates": [
          121.5492637,
          25.0424571
        ]
      },
      "properties": {
        "行政區": 63000030,
        "院所": "診所",
        "機構類別": "基層診所",
        "院所名稱": "家齡診所",
        "地址": "臺北市大安區敦化南路一段191號B1",
        "緯度": 25.0424571,
        "經度": 121.5492637,
        "電話": "(02)27211258",
        "緯度.1": 25.0424571,
        "經度.1": 121.5492637,
        "district": "大安區"
      }
    },
    {
      "type": "Feature",
      "geometry": {
        "type": "Point",
        "coordinates": [
          121.5447751,
          25.0249641
        ]
      },
      "properties": {
        "行政區": 63000030,
        "院所": "診所",
        "機構類別": "基層診所",
        "院所名稱": "健華診所",
        "地址": "臺北市大安區和平東路二段299號",
        "緯度": 25.0249641,
        "經度": 121.5447751,
        "電話": "(02)27072990",
        "緯度.1": 25.0249641,
        "經度.1": 121.5447751,
        "district": "大安區"
      }
    },
    {
      "type": "Feature",
      "geometry": {
        "type": "Point",
        "coordinates": [
          121.5323691,
          25.0260775
        ]
      },
      "properties": {
        "行政區": 63000030,
        "院所": "診所",
        "機構類別": "基層診所",
        "院所名稱": "許靜瑛小兒科診所",
        "地址": "臺北市大安區和平東路一段230號1樓",
        "緯度": 25.0260775,
        "經度": 121.5323691,
        "電話": "(02)23629088",
        "緯度.1": 25.0260775,
        "經度.1": 121.5323691,
        "district": "大安區"
      }
    },
    {
      "type": "Feature",
      "geometry": {
        "type": "Point",
        "coordinates": [
          121.5542524,
          25.0411765
        ]
      },
      "properties": {
        "行政區": 63000030,
        "院所": "診所",
        "機構類別": "基層診所",
        "院所名稱": "黃文香兒科診所",
        "地址": "臺北市大安區忠孝東路四段250號2樓之1",
        "緯度": 25.0411765,
        "經度": 121.5542524,
        "電話": "(02)27313305",
        "緯度.1": 25.0411765,
        "經度.1": 121.5542524,
        "district": "大安區"
      }
    },
    {
      "type": "Feature",
      "geometry": {
        "type": "Point",
        "coordinates": [
          121.5461772,
          25.02855
        ]
      },
      "properties": {
        "行政區": 63000030,
        "院所": "診所",
        "機構類別": "基層診所",
        "院所名稱": "劉建宏診所",
        "地址": "臺北市大安區大安路二段139號",
        "緯度": 25.02855,
        "經度": 121.5461772,
        "電話": "(02)27002368",
        "緯度.1": 25.02855,
        "經度.1": 121.5461772,
        "district": "大安區"
      }
    },
    {
      "type": "Feature",
      "geometry": {
        "type": "Point",
        "coordinates": [
          121.5223977,
          25.0588457
        ]
      },
      "properties": {
        "行政區": 63000040,
        "院所": "醫院",
        "機構類別": "醫學中心",
        "院所名稱": "台灣基督長老教會馬偕醫療財團法人馬偕紀念醫院",
        "地址": "臺北市中山區中山北路二段92號",
        "緯度": 25.0588457,
        "經度": 121.5223977,
        "電話": "(02)25433535",
        "緯度.1": 25.0588457,
        "經度.1": 121.5223977,
        "district": "中山區"
      }
    },
    {
      "type": "Feature",
      "geometry": {
        "type": "Point",
        "coordinates": [
          121.5223977,
          25.0588457
        ]
      },
      "properties": {
        "行政區": 63000040,
        "院所": "醫院",
        "機構類別": "區域醫院",
        "院所名稱": "台灣基督長老教會馬偕醫療財團法人馬偕兒童醫院",
        "地址": "臺北市中山區中山北路二段92號",
        "緯度": 25.0588457,
        "經度": 121.5223977,
        "電話": "(02)25433535",
        "緯度.1": 25.0588457,
        "經度.1": 121.5223977,
        "district": "中山區"
      }
    },
    {
      "type": "Feature",
      "geometry": {
        "type": "Point",
        "coordinates": [
          121.5339024,
          25.0503253
        ]
      },
      "properties": {
        "行政區": 63000040,
        "院所": "醫院",
        "機構類別": "地區醫院",
        "院所名稱": "協和婦女醫院",
        "地址": "臺北市中山區松江路85巷5號",
        "緯度": 25.0503253,
        "經度": 121.5339024,
        "電話": "(02)25072222",
        "緯度.1": 25.0503253,
        "經度.1": 121.5339024,
        "district": "中山區"
      }
    },
    {
      "type": "Feature",
      "geometry": {
        "type": "Point",
        "coordinates": [
          121.5336997,
          25.0643338
        ]
      },
      "properties": {
        "行政區": 63000040,
        "院所": "診所",
        "機構類別": "門診部",
        "院所名稱": "臺北市立聯合醫院附設中山門診部",
        "地址": "臺北市中山區松江路367號1樓",
        "緯度": 25.0643338,
        "經度": 121.5336997,
        "電話": "(02)25013363",
        "緯度.1": 25.0643338,
        "經度.1": 121.5336997,
        "district": "中山區"
      }
    },
    {
      "type": "Feature",
      "geometry": {
        "type": "Point",
        "coordinates": [
          121.5345612,
          25.0482593
        ]
      },
      "properties": {
        "行政區": 63000040,
        "院所": "診所",
        "機構類別": "基層診所",
        "院所名稱": "木生婦幼診所",
        "地址": "臺北市中山區長安東路二段90號1-4樓",
        "緯度": 25.0482593,
        "經度": 121.5345612,
        "電話": "(02)25012312",
        "緯度.1": 25.0482593,
        "經度.1": 121.5345612,
        "district": "中山區"
      }
    },
    {
      "type": "Feature",
      "geometry": {
        "type": "Point",
        "coordinates": [
          121.5253564,
          25.0608794
        ]
      },
      "properties": {
        "行政區": 63000040,
        "院所": "診所",
        "機構類別": "基層診所",
        "院所名稱": "四季和安婦幼診所",
        "地址": "臺北市中山區林森北路458號",
        "緯度": 25.0608794,
        "經度": 121.5253564,
        "電話": "(02)25677310",
        "緯度.1": 25.0608794,
        "經度.1": 121.5253564,
        "district": "中山區"
      }
    },
    {
      "type": "Feature",
      "geometry": {
        "type": "Point",
        "coordinates": [
          121.559291,
          25.079518
        ]
      },
      "properties": {
        "行政區": 63000040,
        "院所": "診所",
        "機構類別": "基層診所",
        "院所名稱": "永育樂群診所",
        "地址": "臺北市中山區樂群二路210之2號",
        "緯度": 25.079518,
        "經度": 121.559291,
        "電話": "(02)85012268",
        "緯度.1": 25.079518,
        "經度.1": 121.559291,
        "district": "中山區"
      }
    },
    {
      "type": "Feature",
      "geometry": {
        "type": "Point",
        "coordinates": [
          121.549022,
          25.08373
        ]
      },
      "properties": {
        "行政區": 63000040,
        "院所": "診所",
        "機構類別": "基層診所",
        "院所名稱": "莊宇龍診所",
        "地址": "臺北市中山區北安路637號1樓",
        "緯度": 25.08373,
        "經度": 121.549022,
        "電話": "(02)25331255",
        "緯度.1": 25.08373,
        "經度.1": 121.549022,
        "district": "中山區"
      }
    },
    {
      "type": "Feature",
      "geometry": {
        "type": "Point",
        "coordinates": [
          121.531288,
          25.0581019
        ]
      },
      "properties": {
        "行政區": 63000040,
        "院所": "診所",
        "機構類別": "基層診所",
        "院所名稱": "陳炯輝診所",
        "地址": "臺北市中山區民生東路二段103號",
        "緯度": 25.0581019,
        "經度": 121.531288,
        "電話": "(02)25221796",
        "緯度.1": 25.0581019,
        "經度.1": 121.531288,
        "district": "中山區"
      }
    },
    {
      "type": "Feature",
      "geometry": {
        "type": "Point",
        "coordinates": [
          121.5461131,
          25.0796826
        ]
      },
      "properties": {
        "行政區": 63000040,
        "院所": "診所",
        "機構類別": "基層診所",
        "院所名稱": "愛鄰診所",
        "地址": "臺北市中山區北安路520-1號",
        "緯度": 25.0796826,
        "經度": 121.5461131,
        "電話": "(02)25322333",
        "緯度.1": 25.0796826,
        "經度.1": 121.5461131,
        "district": "中山區"
      }
    },
    {
      "type": "Feature",
      "geometry": {
        "type": "Point",
        "coordinates": [
          121.540973,
          25.0564601
        ]
      },
      "properties": {
        "行政區": 63000040,
        "院所": "診所",
        "機構類別": "基層診所",
        "院所名稱": "寧康聯合診所",
        "地址": "臺北市中山區龍江路209巷6-1號",
        "緯度": 25.0564601,
        "經度": 121.540973,
        "電話": "(02)25013862",
        "緯度.1": 25.0564601,
        "經度.1": 121.540973,
        "district": "中山區"
      }
    },
    {
      "type": "Feature",
      "geometry": {
        "type": "Point",
        "coordinates": [
          121.5217812,
          25.0576456
        ]
      },
      "properties": {
        "行政區": 63000040,
        "院所": "診所",
        "機構類別": "基層診所",
        "院所名稱": "雙連婦產科小兒科診所",
        "地址": "臺北市中山區民生西路30號4樓",
        "緯度": 25.0576456,
        "經度": 121.5217812,
        "電話": "(02)25222350",
        "緯度.1": 25.0576456,
        "經度.1": 121.5217812,
        "district": "中山區"
      }
    },
    {
      "type": "Feature",
      "geometry": {
        "type": "Point",
        "coordinates": [
          121.5237713,
          25.0648345
        ]
      },
      "properties": {
        "行政區": 63000040,
        "院所": "診所",
        "機構類別": "基層診所",
        "院所名稱": "綠葉親子診所",
        "地址": "臺北市中山區農安街12-1號1樓",
        "緯度": 25.0648345,
        "經度": 121.5237713,
        "電話": "(02)25935559",
        "緯度.1": 25.0648345,
        "經度.1": 121.5237713,
        "district": "中山區"
      }
    },
    {
      "type": "Feature",
      "geometry": {
        "type": "Point",
        "coordinates": [
          121.5191591,
          25.0402741
        ]
      },
      "properties": {
        "行政區": 63000050,
        "院所": "醫院",
        "機構類別": "醫學中心",
        "院所名稱": "國?臺灣大學醫學院附設醫院",
        "地址": "臺北市中正區中山南路7、8號；常德街1號",
        "緯度": 25.0402741,
        "經度": 121.5191591,
        "電話": "(02)23123456",
        "語音預約": "(02)23567890",
        "緯度.1": 25.0402741,
        "經度.1": 121.5191591,
        "district": "中正區"
      }
    },
    {
      "type": "Feature",
      "geometry": {
        "type": "Point",
        "coordinates": [
          121.5071105,
          25.0353943
        ]
      },
      "properties": {
        "行政區": 63000050,
        "院所": "醫院",
        "機構類別": "區域-院區",
        "院所名稱": "臺北市立聯合醫院和平院區",
        "地址": "臺北市中正區中華路二段33號",
        "緯度": 25.0353943,
        "經度": 121.5071105,
        "電話": "(02)23889595",
        "緯度.1": 25.0353943,
        "經度.1": 121.5071105,
        "district": "中正區"
      }
    },
    {
      "type": "Feature",
      "geometry": {
        "type": "Point",
        "coordinates": [
          121.5192885,
          25.0289947
        ]
      },
      "properties": {
        "行政區": 63000050,
        "院所": "醫院",
        "機構類別": "區域-院區",
        "院所名稱": "臺北市立聯合醫院婦幼院區",
        "地址": "臺北市中正區福州街12號",
        "緯度": 25.0289947,
        "經度": 121.5192885,
        "電話": "(02)23916470",
        "緯度.1": 25.0289947,
        "經度.1": 121.5192885,
        "district": "中正區"
      }
    },
    {
      "type": "Feature",
      "geometry": {
        "type": "Point",
        "coordinates": [
          121.518583,
          25.0443271
        ]
      },
      "properties": {
        "行政區": 63000050,
        "院所": "醫院",
        "機構類別": "區域醫院",
        "院所名稱": "國?臺灣大學醫學院附設醫院兒童醫院",
        "地址": "臺北市中正區中山南路8號",
        "緯度": 25.0443271,
        "經度": 121.518583,
        "電話": "(02)23123456",
        "語音預約": "(02)23567890",
        "緯度.1": 25.0443271,
        "經度.1": 121.518583,
        "district": "中正區"
      }
    },
    {
      "type": "Feature",
      "geometry": {
        "type": "Point",
        "coordinates": [
          121.5160136,
          25.0304306
        ]
      },
      "properties": {
        "行政區": 63000050,
        "院所": "診所",
        "機構類別": "門診部",
        "院所名稱": "臺北市立聯合醫院附設中正門診部",
        "地址": "臺北市中正區牯嶺街24號",
        "緯度": 25.0304306,
        "經度": 121.5160136,
        "電話": "(02)23210168",
        "緯度.1": 25.0304306,
        "經度.1": 121.5160136,
        "district": "中正區"
      }
    },
    {
      "type": "Feature",
      "geometry": {
        "type": "Point",
        "coordinates": [
          121.513371,
          25.043041
        ]
      },
      "properties": {
        "行政區": 63000050,
        "院所": "診所",
        "機構類別": "基層診所",
        "院所名稱": "小禾馨懷寧小兒專科診所",
        "地址": "臺北市中正區重慶南路一段99號2樓",
        "緯度": 25.043041,
        "經度": 121.513371,
        "電話": "(02)23110353",
        "緯度.1": 25.043041,
        "經度.1": 121.513371,
        "district": "中正區"
      }
    },
    {
      "type": "Feature",
      "geometry": {
        "type": "Point",
        "coordinates": [
          121.5139338,
          25.0432027
        ]
      },
      "properties": {
        "行政區": 63000050,
        "院所": "診所",
        "機構類別": "基層診所",
        "院所名稱": "禾馨婦產科診所",
        "地址": "臺北市中正區懷寧街78號1樓",
        "緯度": 25.0432027,
        "經度": 121.5139338,
        "電話": "(02)23612323",
        "緯度.1": 25.0432027,
        "經度.1": 121.5139338,
        "district": "中正區"
      }
    },
    {
      "type": "Feature",
      "geometry": {
        "type": "Point",
        "coordinates": [
          121.5240207,
          25.022065
        ]
      },
      "properties": {
        "行政區": 63000050,
        "院所": "診所",
        "機構類別": "基層診所",
        "院所名稱": "朱小兒科診所",
        "地址": "臺北市中正區汀州路二段220號",
        "緯度": 25.022065,
        "經度": 121.5240207,
        "電話": "(02)23651810",
        "緯度.1": 25.022065,
        "經度.1": 121.5240207,
        "district": "中正區"
      }
    },
    {
      "type": "Feature",
      "geometry": {
        "type": "Point",
        "coordinates": [
          121.5233726,
          25.0406064
        ]
      },
      "properties": {
        "行政區": 63000050,
        "院所": "診所",
        "機構類別": "基層診所",
        "院所名稱": "周正成小兒科診所",
        "地址": "臺北市中正區徐州路24號",
        "緯度": 25.0406064,
        "經度": 121.5233726,
        "電話": "(02)23516830",
        "緯度.1": 25.0406064,
        "經度.1": 121.5233726,
        "district": "中正區"
      }
    },
    {
      "type": "Feature",
      "geometry": {
        "type": "Point",
        "coordinates": [
          121.5087132,
          25.0513086
        ]
      },
      "properties": {
        "行政區": 63000060,
        "院所": "醫院",
        "機構類別": "區域-院區",
        "院所名稱": "臺北市立聯合醫院中興院區",
        "地址": "臺北市大同區鄭州路145號",
        "緯度": 25.0513086,
        "經度": 121.5087132,
        "電話": "(02)25523234",
        "緯度.1": 25.0513086,
        "經度.1": 121.5087132,
        "district": "大同區"
      }
    },
    {
      "type": "Feature",
      "geometry": {
        "type": "Point",
        "coordinates": [
          121.5162533,
          25.0656996
        ]
      },
      "properties": {
        "行政區": 63000060,
        "院所": "診所",
        "機構類別": "門診部",
        "院所名稱": "臺北市立聯合醫院附設大同門診部",
        "地址": "臺北市大同區昌吉街52號1樓",
        "緯度": 25.0656996,
        "經度": 121.5162533,
        "電話": "(02)25948971",
        "緯度.1": 25.0656996,
        "經度.1": 121.5162533,
        "district": "大同區"
      }
    },
    {
      "type": "Feature",
      "geometry": {
        "type": "Point",
        "coordinates": [
          121.5144381,
          25.0569008
        ]
      },
      "properties": {
        "行政區": 63000060,
        "院所": "診所",
        "機構類別": "基層診所",
        "院所名稱": "寧夏診所",
        "地址": "臺北市大同區民生西路236號1樓",
        "緯度": 25.0569008,
        "經度": 121.5144381,
        "電話": "(02)25586060",
        "緯度.1": 25.0569008,
        "經度.1": 121.5144381,
        "district": "大同區"
      }
    },
    {
      "type": "Feature",
      "geometry": {
        "type": "Point",
        "coordinates": [
          121.5139452,
          25.0663565
        ]
      },
      "properties": {
        "行政區": 63000060,
        "院所": "診所",
        "機構類別": "基層診所",
        "院所名稱": "澤康診所",
        "地址": "臺北市大同區重慶北路三段71號",
        "緯度": 25.0663565,
        "經度": 121.5139452,
        "電話": "(02)25960922",
        "緯度.1": 25.0663565,
        "經度.1": 121.5139452,
        "district": "大同區"
      }
    },
    {
      "type": "Feature",
      "geometry": {
        "type": "Point",
        "coordinates": [
          121.515086,
          25.0514479
        ]
      },
      "properties": {
        "行政區": 63000060,
        "院所": "診所",
        "機構類別": "基層診所",
        "院所名稱": "羅源彰診所",
        "地址": "臺北市大同區長安西路137號",
        "緯度": 25.0514479,
        "經度": 121.515086,
        "電話": "(02)25552500",
        "緯度.1": 25.0514479,
        "經度.1": 121.515086,
        "district": "大同區"
      }
    },
    {
      "type": "Feature",
      "geometry": {
        "type": "Point",
        "coordinates": [
          121.519998,
          25.060251
        ]
      },
      "properties": {
        "行政區": 63000060,
        "院所": "診所",
        "機構類別": "基層診所",
        "院所名稱": "悅昇診所",
        "地址": "臺北市大同區錦西街50-1號",
        "緯度": 25.060251,
        "經度": 121.519998,
        "電話": "(02)25502664",
        "緯度.1": 25.060251,
        "經度.1": 121.519998,
        "district": "大同區"
      }
    },
    {
      "type": "Feature",
      "geometry": {
        "type": "Point",
        "coordinates": [
          121.5035547,
          25.0416765
        ]
      },
      "properties": {
        "行政區": 63000070,
        "院所": "醫院",
        "機構類別": "地區醫院",
        "院所名稱": "國立臺灣大學醫學院附設醫院北護分院",
        "地址": "臺北市萬華區內江街87號",
        "緯度": 25.0416765,
        "經度": 121.5035547,
        "電話": "(02)23717101",
        "緯度.1": 25.0416765,
        "經度.1": 121.5035547,
        "district": "萬華區"
      }
    },
    {
      "type": "Feature",
      "geometry": {
        "type": "Point",
        "coordinates": [
          121.4943799,
          25.0277299
        ]
      },
      "properties": {
        "行政區": 63000070,
        "院所": "醫院",
        "機構類別": "地區醫院",
        "院所名稱": "西園醫療社團法人西園醫院",
        "地址": "臺北市萬華區西園路二段270號",
        "緯度": 25.0277299,
        "經度": 121.4943799,
        "電話": "(02)23076968",
        "緯度.1": 25.0277299,
        "經度.1": 121.4943799,
        "district": "萬華區"
      }
    },
    {
      "type": "Feature",
      "geometry": {
        "type": "Point",
        "coordinates": [
          121.4976402,
          25.0232014
        ]
      },
      "properties": {
        "行政區": 63000070,
        "院所": "診所",
        "機構類別": "門診部",
        "院所名稱": "臺北市立聯合醫院附設萬華門診部",
        "地址": "臺北市萬華區東園街152號",
        "緯度": 25.0232014,
        "經度": 121.4976402,
        "電話": "(02)23395383",
        "緯度.1": 25.0232014,
        "經度.1": 121.4976402,
        "district": "萬華區"
      }
    },
    {
      "type": "Feature",
      "geometry": {
        "type": "Point",
        "coordinates": [
          121.4948419,
          25.0251946
        ]
      },
      "properties": {
        "行政區": 63000070,
        "院所": "診所",
        "機構類別": "基層診所",
        "院所名稱": "快樂兒童診所",
        "地址": "臺北市萬華區寶興街121號",
        "緯度": 25.0251946,
        "經度": 121.4948419,
        "電話": "(02)23328610",
        "緯度.1": 25.0251946,
        "經度.1": 121.4948419,
        "district": "萬華區"
      }
    },
    {
      "type": "Feature",
      "geometry": {
        "type": "Point",
        "coordinates": [
          121.506136,
          25.0275478
        ]
      },
      "properties": {
        "行政區": 63000070,
        "院所": "診所",
        "機構類別": "基層診所",
        "院所名稱": "青年診所",
        "地址": "臺北市萬華區中華路二段424號",
        "緯度": 25.0275478,
        "經度": 121.506136,
        "電話": "(02)23032450",
        "緯度.1": 25.0275478,
        "經度.1": 121.506136,
        "district": "萬華區"
      }
    },
    {
      "type": "Feature",
      "geometry": {
        "type": "Point",
        "coordinates": [
          121.5064733,
          25.027104
        ]
      },
      "properties": {
        "行政區": 63000070,
        "院所": "診所",
        "機構類別": "基層診所",
        "院所名稱": "漢宗小兒科診所",
        "地址": "臺北市萬華區中華路二段434號",
        "緯度": 25.027104,
        "經度": 121.5064733,
        "電話": "(02)23039022",
        "緯度.1": 25.027104,
        "經度.1": 121.5064733,
        "district": "萬華區"
      }
    },
    {
      "type": "Feature",
      "geometry": {
        "type": "Point",
        "coordinates": [
          121.5584967,
          25.0004801
        ]
      },
      "properties": {
        "行政區": 63000080,
        "院所": "醫院",
        "機構類別": "醫學中心",
        "院所名稱": "臺北市立萬芳醫院-委託臺北醫學大學辦理",
        "地址": "臺北市文山區興隆路三段111號",
        "緯度": 25.0004801,
        "經度": 121.5584967,
        "電話": "(02)29307930",
        "緯度.1": 25.0004801,
        "經度.1": 121.5584967,
        "district": "文山區"
      }
    },
    {
      "type": "Feature",
      "geometry": {
        "type": "Point",
        "coordinates": [
          121.5765374,
          24.9876129
        ]
      },
      "properties": {
        "行政區": 63000080,
        "院所": "診所",
        "機構類別": "門診部",
        "院所名稱": "臺北市立聯合醫院附設政大門診部",
        "地址": "臺北市文山區指南路二段117號",
        "緯度": 24.9876129,
        "經度": 121.5765374,
        "電話": "(02)82377441",
        "緯度.1": 24.9876129,
        "經度.1": 121.5765374,
        "district": "文山區"
      }
    },
    {
      "type": "Feature",
      "geometry": {
        "type": "Point",
        "coordinates": [
          121.540178,
          24.9918649
        ]
      },
      "properties": {
        "行政區": 63000080,
        "院所": "診所",
        "機構類別": "基層診所",
        "院所名稱": "佳鴻診所",
        "地址": "臺北市文山區羅斯福路六段256號1樓",
        "緯度": 24.9918649,
        "經度": 121.540178,
        "電話": "(02)29333096",
        "緯度.1": 24.9918649,
        "經度.1": 121.540178,
        "district": "文山區"
      }
    },
    {
      "type": "Feature",
      "geometry": {
        "type": "Point",
        "coordinates": [
          121.5535166,
          25.0017769
        ]
      },
      "properties": {
        "行政區": 63000080,
        "院所": "診所",
        "機構類別": "基層診所",
        "院所名稱": "屈銘軒小兒科診所",
        "地址": "臺北市文山區興隆路二段301巷4-2號",
        "緯度": 25.0017769,
        "經度": 121.5535166,
        "電話": "(02)29308518",
        "緯度.1": 25.0017769,
        "經度.1": 121.5535166,
        "district": "文山區"
      }
    },
    {
      "type": "Feature",
      "geometry": {
        "type": "Point",
        "coordinates": [
          121.5479708,
          24.9997064
        ]
      },
      "properties": {
        "行政區": 63000080,
        "院所": "診所",
        "機構類別": "基層診所",
        "院所名稱": "林建輝小兒科診所",
        "地址": "臺北市文山區興隆路二段70號1樓",
        "緯度": 24.9997064,
        "經度": 121.5479708,
        "電話": "(02)29334933",
        "緯度.1": 24.9997064,
        "經度.1": 121.5479708,
        "district": "文山區"
      }
    },
    {
      "type": "Feature",
      "geometry": {
        "type": "Point",
        "coordinates": [
          121.5613698,
          24.9850176
        ]
      },
      "properties": {
        "行政區": 63000080,
        "院所": "診所",
        "機構類別": "基層診所",
        "院所名稱": "洪佑承小兒專科診所",
        "地址": "臺北市文山區興隆路四段64-2號1樓",
        "緯度": 24.9850176,
        "經度": 121.5613698,
        "電話": "(02)29364708",
        "緯度.1": 24.9850176,
        "經度.1": 121.5613698,
        "district": "文山區"
      }
    },
    {
      "type": "Feature",
      "geometry": {
        "type": "Point",
        "coordinates": [
          121.5604923,
          24.9884068
        ]
      },
      "properties": {
        "行政區": 63000080,
        "院所": "診所",
        "機構類別": "基層診所",
        "院所名稱": "徐慧玲診所",
        "地址": "臺北市文山區興隆路四段97號",
        "緯度": 24.9884068,
        "經度": 121.5604923,
        "電話": "(02)22340000",
        "緯度.1": 24.9884068,
        "經度.1": 121.5604923,
        "district": "文山區"
      }
    },
    {
      "type": "Feature",
      "geometry": {
        "type": "Point",
        "coordinates": [
          121.5401245,
          24.9923978
        ]
      },
      "properties": {
        "行政區": 63000080,
        "院所": "診所",
        "機構類別": "基層診所",
        "院所名稱": "黃偉志小兒科診所",
        "地址": "臺北市文山區萬慶街12號",
        "緯度": 24.9923978,
        "經度": 121.5401245,
        "電話": "(02)29354556",
        "緯度.1": 24.9923978,
        "經度.1": 121.5401245,
        "district": "文山區"
      }
    },
    {
      "type": "Feature",
      "geometry": {
        "type": "Point",
        "coordinates": [
          121.5589315,
          24.9977567
        ]
      },
      "properties": {
        "行政區": 63000080,
        "院所": "診所",
        "機構類別": "基層診所",
        "院所名稱": "葉洪小兒科診所",
        "地址": "臺北市文山區興隆路三段202號",
        "緯度": 24.9977567,
        "經度": 121.5589315,
        "電話": "(02)22300055",
        "緯度.1": 24.9977567,
        "經度.1": 121.5589315,
        "district": "文山區"
      }
    },
    {
      "type": "Feature",
      "geometry": {
        "type": "Point",
        "coordinates": [
          121.5609538,
          24.9860185
        ]
      },
      "properties": {
        "行政區": 63000080,
        "院所": "診所",
        "機構類別": "基層診所",
        "院所名稱": "德安小兒科診所",
        "地址": "臺北市文山區興隆路四段6-10號1樓",
        "緯度": 24.9860185,
        "經度": 121.5609538,
        "電話": "(02)29395299",
        "緯度.1": 24.9860185,
        "經度.1": 121.5609538,
        "district": "文山區"
      }
    },
    {
      "type": "Feature",
      "geometry": {
        "type": "Point",
        "coordinates": [
          121.5454169,
          24.99891
        ]
      },
      "properties": {
        "行政區": 63000080,
        "院所": "診所",
        "機構類別": "基層診所",
        "院所名稱": "興隆內科小兒科診所",
        "地址": "臺北市文山區興隆路二段17號",
        "緯度": 24.99891,
        "經度": 121.5454169,
        "電話": "(02)29311736",
        "緯度.1": 24.99891,
        "經度.1": 121.5454169,
        "district": "文山區"
      }
    },
    {
      "type": "Feature",
      "geometry": {
        "type": "Point",
        "coordinates": [
          121.5861422,
          25.0465997
        ]
      },
      "properties": {
        "行政區": 63000090,
        "院所": "醫院",
        "機構類別": "區域-院區",
        "院所名稱": "臺北市立聯合醫院忠孝院區",
        "地址": "臺北市南港區同德路87號",
        "緯度": 25.0465997,
        "經度": 121.5861422,
        "電話": "(02)27861288",
        "緯度.1": 25.0465997,
        "經度.1": 121.5861422,
        "district": "南港區"
      }
    },
    {
      "type": "Feature",
      "geometry": {
        "type": "Point",
        "coordinates": [
          121.6068266,
          25.0547158
        ]
      },
      "properties": {
        "行政區": 63000090,
        "院所": "診所",
        "機構類別": "門診部",
        "院所名稱": "臺北市立聯合醫院附設南港門診部",
        "地址": "臺北市南港區南港路一段360號1樓",
        "緯度": 25.0547158,
        "經度": 121.6068266,
        "電話": "(02)27868756",
        "緯度.1": 25.0547158,
        "經度.1": 121.6068266,
        "district": "南港區"
      }
    },
    {
      "type": "Feature",
      "geometry": {
        "type": "Point",
        "coordinates": [
          121.5815825,
          25.044711
        ]
      },
      "properties": {
        "行政區": 63000090,
        "院所": "診所",
        "機構類別": "基層診所",
        "院所名稱": "友力耳鼻喉科診所",
        "地址": "臺北市南港區中坡北路12號1樓",
        "緯度": 25.044711,
        "經度": 121.5815825,
        "電話": "(02)27853913",
        "緯度.1": 25.044711,
        "經度.1": 121.5815825,
        "district": "南港區"
      }
    },
    {
      "type": "Feature",
      "geometry": {
        "type": "Point",
        "coordinates": [
          121.5867293,
          25.0448163
        ]
      },
      "properties": {
        "行政區": 63000090,
        "院所": "診所",
        "機構類別": "基層診所",
        "院所名稱": "天仁小兒科診所",
        "地址": "臺北市南港區成福路21號",
        "緯度": 25.0448163,
        "經度": 121.5867293,
        "電話": "(02)27862687",
        "緯度.1": 25.0448163,
        "經度.1": 121.5867293,
        "district": "南港區"
      }
    },
    {
      "type": "Feature",
      "geometry": {
        "type": "Point",
        "coordinates": [
          121.5867293,
          25.0448163
        ]
      },
      "properties": {
        "行政區": 63000090,
        "院所": "診所",
        "機構類別": "基層診所",
        "院所名稱": "天仁健康診所",
        "地址": "臺北市南港區成福路21號",
        "緯度": 25.0448163,
        "經度": 121.5867293,
        "電話": "(02)27862687",
        "緯度.1": 25.0448163,
        "經度.1": 121.5867293,
        "district": "南港區"
      }
    },
    {
      "type": "Feature",
      "geometry": {
        "type": "Point",
        "coordinates": [
          121.5878487,
          25.039477
        ]
      },
      "properties": {
        "行政區": 63000090,
        "院所": "診所",
        "機構類別": "基層診所",
        "院所名稱": "永育醫療福德診所",
        "地址": "臺北市南港區福德街320號",
        "緯度": 25.039477,
        "經度": 121.5878487,
        "電話": "(02)27850700",
        "緯度.1": 25.039477,
        "經度.1": 121.5878487,
        "district": "南港區"
      }
    },
    {
      "type": "Feature",
      "geometry": {
        "type": "Point",
        "coordinates": [
          121.6151031,
          25.0455491
        ]
      },
      "properties": {
        "行政區": 63000090,
        "院所": "診所",
        "機構類別": "基層診所",
        "院所名稱": "李文珍小兒科診所",
        "地址": "臺北市南港區研究院路二段74號",
        "緯度": 25.0455491,
        "經度": 121.6151031,
        "電話": "(02)26511871",
        "緯度.1": 25.0455491,
        "經度.1": 121.6151031,
        "district": "南港區"
      }
    },
    {
      "type": "Feature",
      "geometry": {
        "type": "Point",
        "coordinates": [
          121.5831839,
          25.0450264
        ]
      },
      "properties": {
        "行政區": 63000090,
        "院所": "診所",
        "機構類別": "基層診所",
        "院所名稱": "義仁兒科診所",
        "地址": "臺北市南港區玉成街138號1樓",
        "緯度": 25.0450264,
        "經度": 121.5831839,
        "電話": "(02)26515929",
        "緯度.1": 25.0450264,
        "經度.1": 121.5831839,
        "district": "南港區"
      }
    },
    {
      "type": "Feature",
      "geometry": {
        "type": "Point",
        "coordinates": [
          121.6151986,
          25.0453206
        ]
      },
      "properties": {
        "行政區": 63000090,
        "院所": "診所",
        "機構類別": "基層診所",
        "院所名稱": "維康診所",
        "地址": "臺北市南港區研究院路二段84巷1號1樓",
        "緯度": 25.0453206,
        "經度": 121.6151986,
        "電話": "(02)26517748",
        "緯度.1": 25.0453206,
        "經度.1": 121.6151986,
        "district": "南港區"
      }
    },
    {
      "type": "Feature",
      "geometry": {
        "type": "Point",
        "coordinates": [
          121.583312,
          25.0439359
        ]
      },
      "properties": {
        "行政區": 63000090,
        "院所": "診所",
        "機構類別": "基層診所",
        "院所名稱": "蔣小兒科診所",
        "地址": "臺北市南港區玉成街166巷30號1樓",
        "緯度": 25.0439359,
        "經度": 121.583312,
        "電話": "(02)26513761",
        "緯度.1": 25.0439359,
        "經度.1": 121.583312,
        "district": "南港區"
      }
    },
    {
      "type": "Feature",
      "geometry": {
        "type": "Point",
        "coordinates": [
          121.6172215,
          25.0681719
        ]
      },
      "properties": {
        "行政區": 63000100,
        "院所": "診所",
        "機構類別": "基層診所",
        "院所名稱": "謝小兒科診所",
        "地址": "臺北市內湖區東湖路147號2樓",
        "緯度": 25.0681719,
        "經度": 121.6172215,
        "電話": "(02)26334535",
        "緯度.1": 25.0681719,
        "經度.1": 121.6172215,
        "district": "內湖區"
      }
    },
    {
      "type": "Feature",
      "geometry": {
        "type": "Point",
        "coordinates": [
          121.5959272,
          25.0733691
        ]
      },
      "properties": {
        "行政區": 63000100,
        "院所": "醫院",
        "機構類別": "醫學中心",
        "院所名稱": "三軍總醫院附設民眾診療服務處",
        "地址": "臺北市內湖區成功路二段325號",
        "緯度": 25.0733691,
        "經度": 121.5959272,
        "電話": "(02)87923311",
        "緯度.1": 25.0733691,
        "經度.1": 121.5959272,
        "district": "內湖區"
      }
    },
    {
      "type": "Feature",
      "geometry": {
        "type": "Point",
        "coordinates": [
          121.5907328,
          25.082146
        ]
      },
      "properties": {
        "行政區": 63000100,
        "院所": "醫院",
        "機構類別": "地區醫院",
        "院所名稱": "中國醫藥大學附設醫院臺北分院",
        "地址": "臺北市內湖區內湖路二段360號",
        "緯度": 25.082146,
        "經度": 121.5907328,
        "電話": "(02)27919696",
        "緯度.1": 25.082146,
        "經度.1": 121.5907328,
        "district": "內湖區"
      }
    },
    {
      "type": "Feature",
      "geometry": {
        "type": "Point",
        "coordinates": [
          121.608877,
          25.0756867
        ]
      },
      "properties": {
        "行政區": 63000100,
        "院所": "醫院",
        "機構類別": "地區醫院",
        "院所名稱": "康寧醫療財團法人康寧醫院",
        "地址": "臺北市內湖區成功路五段420巷26號",
        "緯度": 25.0756867,
        "經度": 121.608877,
        "電話": "(02)26345500",
        "緯度.1": 25.0756867,
        "經度.1": 121.608877,
        "district": "內湖區"
      }
    },
    {
      "type": "Feature",
      "geometry": {
        "type": "Point",
        "coordinates": [
          121.5889951,
          25.0693633
        ]
      },
      "properties": {
        "行政區": 63000100,
        "院所": "診所",
        "機構類別": "門診部",
        "院所名稱": "臺北市立聯合醫院附設內湖門診部",
        "地址": "臺北市內湖區民權東路六段99號之1",
        "緯度": 25.0693633,
        "經度": 121.5889951,
        "電話": "(02)27908387",
        "緯度.1": 25.0693633,
        "經度.1": 121.5889951,
        "district": "內湖區"
      }
    },
    {
      "type": "Feature",
      "geometry": {
        "type": "Point",
        "coordinates": [
          121.5817825,
          25.0674958
        ]
      },
      "properties": {
        "行政區": 63000100,
        "院所": "診所",
        "機構類別": "基層診所",
        "院所名稱": "小禾馨民權小兒專科診所",
        "地址": "臺北市內湖區行忠路191號1樓",
        "緯度": 25.0674958,
        "經度": 121.5817825,
        "電話": "(02)55713333",
        "緯度.1": 25.0674958,
        "經度.1": 121.5817825,
        "district": "內湖區"
      }
    },
    {
      "type": "Feature",
      "geometry": {
        "type": "Point",
        "coordinates": [
          121.6004361,
          25.0848303
        ]
      },
      "properties": {
        "行政區": 63000100,
        "院所": "診所",
        "機構類別": "基層診所",
        "院所名稱": "永育醫療大湖診所",
        "地址": "臺北市內湖區成功路四段366號",
        "緯度": 25.0848303,
        "經度": 121.6004361,
        "電話": "(02)27906002",
        "緯度.1": 25.0848303,
        "經度.1": 121.6004361,
        "district": "內湖區"
      }
    },
    {
      "type": "Feature",
      "geometry": {
        "type": "Point",
        "coordinates": [
          121.5816723,
          25.0674957
        ]
      },
      "properties": {
        "行政區": 63000100,
        "院所": "診所",
        "機構類別": "基層診所",
        "院所名稱": "禾馨民權婦幼診所",
        "地址": "臺北市內湖區民權東路六段42號2樓",
        "緯度": 25.0674957,
        "經度": 121.5816723,
        "電話": "(02)55713333",
        "緯度.1": 25.0674957,
        "經度.1": 121.5816723,
        "district": "內湖區"
      }
    },
    {
      "type": "Feature",
      "geometry": {
        "type": "Point",
        "coordinates": [
          121.5754083,
          25.0778823
        ]
      },
      "properties": {
        "行政區": 63000100,
        "院所": "診所",
        "機構類別": "基層診所",
        "院所名稱": "國泰醫療財團法人內湖國泰診所",
        "地址": "臺北市內湖區瑞光路337號C棟",
        "緯度": 25.0778823,
        "經度": 121.5754083,
        "電話": "(02)87972121",
        "緯度.1": 25.0778823,
        "經度.1": 121.5754083,
        "district": "內湖區"
      }
    },
    {
      "type": "Feature",
      "geometry": {
        "type": "Point",
        "coordinates": [
          121.6188311,
          25.0702234
        ]
      },
      "properties": {
        "行政區": 63000100,
        "院所": "診所",
        "機構類別": "基層診所",
        "院所名稱": "康樂診所",
        "地址": "臺北市內湖區康樂街80號、82號、84號",
        "緯度": 25.0702234,
        "經度": 121.6188311,
        "電話": "(02)26308800",
        "緯度.1": 25.0702234,
        "經度.1": 121.6188311,
        "district": "內湖區"
      }
    },
    {
      "type": "Feature",
      "geometry": {
        "type": "Point",
        "coordinates": [
          121.5795351,
          25.0788586
        ]
      },
      "properties": {
        "行政區": 63000100,
        "院所": "診所",
        "機構類別": "基層診所",
        "院所名稱": "焉醫師診所",
        "地址": "臺北市內湖區內湖路二段21號",
        "緯度": 25.0788586,
        "經度": 121.5795351,
        "電話": "(02)27995008",
        "緯度.1": 25.0788586,
        "經度.1": 121.5795351,
        "district": "內湖區"
      }
    },
    {
      "type": "Feature",
      "geometry": {
        "type": "Point",
        "coordinates": [
          121.598994,
          25.0845096
        ]
      },
      "properties": {
        "行政區": 63000100,
        "院所": "診所",
        "機構類別": "基層診所",
        "院所名稱": "湖欣診所",
        "地址": "臺北市內湖區成功路四段327號",
        "緯度": 25.0845096,
        "經度": 121.598994,
        "電話": "(02)27918350",
        "緯度.1": 25.0845096,
        "經度.1": 121.598994,
        "district": "內湖區"
      }
    },
    {
      "type": "Feature",
      "geometry": {
        "type": "Point",
        "coordinates": [
          121.5938985,
          25.0848929
        ]
      },
      "properties": {
        "行政區": 63000100,
        "院所": "診所",
        "機構類別": "基層診所",
        "院所名稱": "劉淦華診所",
        "地址": "臺北市內湖區金龍路43號",
        "緯度": 25.0848929,
        "經度": 121.5938985,
        "電話": "(02)27905374",
        "緯度.1": 25.0848929,
        "經度.1": 121.5938985,
        "district": "內湖區"
      }
    },
    {
      "type": "Feature",
      "geometry": {
        "type": "Point",
        "coordinates": [
          121.5705513,
          25.0818086
        ]
      },
      "properties": {
        "行政區": 63000100,
        "院所": "診所",
        "機構類別": "基層診所",
        "院所名稱": "魏穀年診所",
        "地址": "臺北市內湖區內湖路一段403號",
        "緯度": 25.0818086,
        "經度": 121.5705513,
        "電話": "(02)26572691",
        "緯度.1": 25.0818086,
        "經度.1": 121.5705513,
        "district": "內湖區"
      }
    },
    {
      "type": "Feature",
      "geometry": {
        "type": "Point",
        "coordinates": [
          121.6172215,
          25.0681719
        ]
      },
      "properties": {
        "行政區": 63000100,
        "院所": "診所",
        "機構類別": "基層診所",
        "院所名稱": "佳霖診所",
        "地址": "臺北市內湖區東湖路147號2樓",
        "緯度": 25.0681719,
        "經度": 121.6172215,
        "電話": "(02)26334535",
        "緯度.1": 25.0681719,
        "經度.1": 121.6172215,
        "district": "內湖區"
      }
    },
    {
      "type": "Feature",
      "geometry": {
        "type": "Point",
        "coordinates": [
          121.6004361,
          25.0848303
        ]
      },
      "properties": {
        "行政區": 63000100,
        "院所": "診所",
        "機構類別": "基層診所",
        "院所名稱": "大湖診所",
        "地址": "臺北市內湖區成功路四段366號",
        "緯度": 25.0848303,
        "經度": 121.6004361,
        "電話": "(02)27906002",
        "緯度.1": 25.0848303,
        "經度.1": 121.6004361,
        "district": "內湖區"
      }
    },
    {
      "type": "Feature",
      "geometry": {
        "type": "Point",
        "coordinates": [
          121.520938,
          25.0964085
        ]
      },
      "properties": {
        "行政區": 63000110,
        "院所": "醫院",
        "機構類別": "醫學中心",
        "院所名稱": "新光醫療財團法人新光吳火獅紀念醫院",
        "地址": "臺北市士林區文昌路95號",
        "緯度": 25.0964085,
        "經度": 121.520938,
        "電話": "(02)28332211",
        "緯度.1": 25.0964085,
        "經度.1": 121.520938,
        "district": "士林區"
      }
    },
    {
      "type": "Feature",
      "geometry": {
        "type": "Point",
        "coordinates": [
          121.5318912,
          25.1051369
        ]
      },
      "properties": {
        "行政區": 63000110,
        "院所": "醫院",
        "機構類別": "區域-院區",
        "院所名稱": "臺北市立聯合醫院陽明院區",
        "地址": "臺北市士林區雨聲街105號",
        "緯度": 25.1051369,
        "經度": 121.5318912,
        "電話": "(02)28353456",
        "緯度.1": 25.1051369,
        "經度.1": 121.5318912,
        "district": "士林區"
      }
    },
    {
      "type": "Feature",
      "geometry": {
        "type": "Point",
        "coordinates": [
          121.5197824,
          25.0928085
        ]
      },
      "properties": {
        "行政區": 63000110,
        "院所": "診所",
        "機構類別": "門診部",
        "院所名稱": "臺北市立聯合醫院附設士林門診部",
        "地址": "臺北市士林區中正路439號1樓",
        "緯度": 25.0928085,
        "經度": 121.5197824,
        "電話": "(02)28836268",
        "緯度.1": 25.0928085,
        "經度.1": 121.5197824,
        "district": "士林區"
      }
    },
    {
      "type": "Feature",
      "geometry": {
        "type": "Point",
        "coordinates": [
          121.5253681,
          25.0950678
        ]
      },
      "properties": {
        "行政區": 63000110,
        "院所": "診所",
        "機構類別": "基層診所",
        "院所名稱": "士林小兒科診所",
        "地址": "臺北市士林區中正路249號",
        "緯度": 25.0950678,
        "經度": 121.5253681,
        "電話": "(02)28812485",
        "緯度.1": 25.0950678,
        "經度.1": 121.5253681,
        "district": "士林區"
      }
    },
    {
      "type": "Feature",
      "geometry": {
        "type": "Point",
        "coordinates": [
          121.5239291,
          25.0946897
        ]
      },
      "properties": {
        "行政區": 63000110,
        "院所": "診所",
        "機構類別": "基層診所",
        "院所名稱": "小禾馨士林小兒專科診所",
        "地址": "臺北市士林區中正路289號",
        "緯度": 25.0946897,
        "經度": 121.5239291,
        "電話": "(02)28827333",
        "緯度.1": 25.0946897,
        "經度.1": 121.5239291,
        "district": "士林區"
      }
    },
    {
      "type": "Feature",
      "geometry": {
        "type": "Point",
        "coordinates": [
          121.5246179,
          25.0956489
        ]
      },
      "properties": {
        "行政區": 63000110,
        "院所": "診所",
        "機構類別": "基層診所",
        "院所名稱": "存德小兒科診所",
        "地址": "臺北市士林區文林路460號",
        "緯度": 25.0956489,
        "經度": 121.5246179,
        "電話": "(02)28342567",
        "緯度.1": 25.0956489,
        "經度.1": 121.5246179,
        "district": "士林區"
      }
    },
    {
      "type": "Feature",
      "geometry": {
        "type": "Point",
        "coordinates": [
          121.5066888,
          25.0874978
        ]
      },
      "properties": {
        "行政區": 63000110,
        "院所": "診所",
        "機構類別": "基層診所",
        "院所名稱": "李世澤小兒科內科診所",
        "地址": "臺北市士林區社子街67號",
        "緯度": 25.0874978,
        "經度": 121.5066888,
        "電話": "(02)28111472",
        "緯度.1": 25.0874978,
        "經度.1": 121.5066888,
        "district": "士林區"
      }
    },
    {
      "type": "Feature",
      "geometry": {
        "type": "Point",
        "coordinates": [
          121.5324541,
          25.1213403
        ]
      },
      "properties": {
        "行政區": 63000110,
        "院所": "診所",
        "機構類別": "基層診所",
        "院所名稱": "貝爾診所",
        "地址": "臺北市士林區中山北路七段82巷9號1樓",
        "緯度": 25.1213403,
        "經度": 121.5324541,
        "電話": "(02)28729980",
        "緯度.1": 25.1213403,
        "經度.1": 121.5324541,
        "district": "士林區"
      }
    },
    {
      "type": "Feature",
      "geometry": {
        "type": "Point",
        "coordinates": [
          121.5252705,
          25.1075469
        ]
      },
      "properties": {
        "行政區": 63000110,
        "院所": "診所",
        "機構類別": "基層診所",
        "院所名稱": "佩佩婦幼診所",
        "地址": "臺北市士林區中山北路六段182號",
        "緯度": 25.1075469,
        "經度": 121.5252705,
        "電話": "(02)28386262",
        "緯度.1": 25.1075469,
        "經度.1": 121.5252705,
        "district": "士林區"
      }
    },
    {
      "type": "Feature",
      "geometry": {
        "type": "Point",
        "coordinates": [
          121.5104206,
          25.0898456
        ]
      },
      "properties": {
        "行政區": 63000110,
        "院所": "診所",
        "機構類別": "基層診所",
        "院所名稱": "科安診所",
        "地址": "臺北市士林區社中街116號",
        "緯度": 25.0898456,
        "經度": 121.5104206,
        "電話": "(02)28110699",
        "緯度.1": 25.0898456,
        "經度.1": 121.5104206,
        "district": "士林區"
      }
    },
    {
      "type": "Feature",
      "geometry": {
        "type": "Point",
        "coordinates": [
          121.5256499,
          25.1101049
        ]
      },
      "properties": {
        "行政區": 63000110,
        "院所": "診所",
        "機構類別": "基層診所",
        "院所名稱": "張虔熙小兒科診所",
        "地址": "臺北市士林區中山北路六段282號",
        "緯度": 25.1101049,
        "經度": 121.5256499,
        "電話": "(02)28361368",
        "緯度.1": 25.1101049,
        "經度.1": 121.5256499,
        "district": "士林區"
      }
    },
    {
      "type": "Feature",
      "geometry": {
        "type": "Point",
        "coordinates": [
          121.5215108,
          25.0884766
        ]
      },
      "properties": {
        "行政區": 63000110,
        "院所": "診所",
        "機構類別": "基層診所",
        "院所名稱": "愛林診所",
        "地址": "臺北市士林區承德路四段222號",
        "緯度": 25.0884766,
        "經度": 121.5215108,
        "電話": "(02)28836881",
        "緯度.1": 25.0884766,
        "經度.1": 121.5215108,
        "district": "士林區"
      }
    },
    {
      "type": "Feature",
      "geometry": {
        "type": "Point",
        "coordinates": [
          121.5360119,
          25.1099779
        ]
      },
      "properties": {
        "行政區": 63000110,
        "院所": "診所",
        "機構類別": "基層診所",
        "院所名稱": "樹爸爸親子診所",
        "地址": "臺北市士林區德行東路286號",
        "緯度": 25.1099779,
        "經度": 121.5360119,
        "電話": "(02)28381838",
        "緯度.1": 25.1099779,
        "經度.1": 121.5360119,
        "district": "士林區"
      }
    },
    {
      "type": "Feature",
      "geometry": {
        "type": "Point",
        "coordinates": [
          121.5197184,
          25.0887571
        ]
      },
      "properties": {
        "行政區": 63000110,
        "院所": "診所",
        "機構類別": "基層診所",
        "院所名稱": "蘇慧卿診所",
        "地址": "臺北市士林區大南路274號",
        "緯度": 25.0887571,
        "經度": 121.5197184,
        "電話": "(02)28829955",
        "緯度.1": 25.0887571,
        "經度.1": 121.5197184,
        "district": "士林區"
      }
    },
    {
      "type": "Feature",
      "geometry": {
        "type": "Point",
        "coordinates": [
          121.5227627,
          25.1208483
        ]
      },
      "properties": {
        "行政區": 63000120,
        "院所": "醫院",
        "機構類別": "醫學中心",
        "院所名稱": "臺北榮民總醫院",
        "地址": "臺北市北投區石牌路二段201號",
        "緯度": 25.1208483,
        "經度": 121.5227627,
        "電話": "(02)28712121",
        "緯度.1": 25.1208483,
        "經度.1": 121.5227627,
        "district": "北投區"
      }
    },
    {
      "type": "Feature",
      "geometry": {
        "type": "Point",
        "coordinates": [
          121.515018,
          25.1151759
        ]
      },
      "properties": {
        "行政區": 63000120,
        "院所": "醫院",
        "機構類別": "區域醫院",
        "院所名稱": "振興醫療財團法人振興醫院",
        "地址": "臺北市北投區振興路45號",
        "緯度": 25.1151759,
        "經度": 121.515018,
        "電話": "(02)28264400",
        "緯度.1": 25.1151759,
        "經度.1": 121.515018,
        "district": "北投區"
      }
    },
    {
      "type": "Feature",
      "geometry": {
        "type": "Point",
        "coordinates": [
          121.4661496,
          25.1206037
        ]
      },
      "properties": {
        "行政區": 63000120,
        "院所": "醫院",
        "機構類別": "地區醫院",
        "院所名稱": "臺北市立關渡醫院-委託臺北榮民總醫院經營",
        "地址": "臺北市北投區知行路225巷12號",
        "緯度": 25.1206037,
        "經度": 121.4661496,
        "電話": "(02)28587000",
        "緯度.1": 25.1206037,
        "經度.1": 121.4661496,
        "district": "北投區"
      }
    },
    {
      "type": "Feature",
      "geometry": {
        "type": "Point",
        "coordinates": [
          121.5026592,
          25.1328136
        ]
      },
      "properties": {
        "行政區": 63000120,
        "院所": "診所",
        "機構類別": "門診部",
        "院所名稱": "臺北市立聯合醫院附設北投門診部",
        "地址": "臺北市北投區新市街30號5樓",
        "緯度": 25.1328136,
        "經度": 121.5026592,
        "電話": "(02)28912670",
        "緯度.1": 25.1328136,
        "經度.1": 121.5026592,
        "district": "北投區"
      }
    },
    {
      "type": "Feature",
      "geometry": {
        "type": "Point",
        "coordinates": [
          121.5131469,
          25.1142258
        ]
      },
      "properties": {
        "行政區": 63000120,
        "院所": "診所",
        "機構類別": "基層診所",
        "院所名稱": "台北欣安耳鼻喉科診所",
        "地址": "臺北市北投區石牌路一段152號",
        "緯度": 25.1142258,
        "經度": 121.5131469,
        "電話": "(02)28210501",
        "緯度.1": 25.1142258,
        "經度.1": 121.5131469,
        "district": "北投區"
      }
    },
    {
      "type": "Feature",
      "geometry": {
        "type": "Point",
        "coordinates": [
          121.5168939,
          25.1170183
        ]
      },
      "properties": {
        "行政區": 63000120,
        "院所": "診所",
        "機構類別": "基層診所",
        "院所名稱": "何叔芳小兒科診所",
        "地址": "臺北市北投區石牌路二段90巷12號1樓",
        "緯度": 25.1170183,
        "經度": 121.5168939,
        "電話": "(02)28206886",
        "緯度.1": 25.1170183,
        "經度.1": 121.5168939,
        "district": "北投區"
      }
    },
    {
      "type": "Feature",
      "geometry": {
        "type": "Point",
        "coordinates": [
          121.5129316,
          25.1128924
        ]
      },
      "properties": {
        "行政區": 63000120,
        "院所": "診所",
        "機構類別": "基層診所",
        "院所名稱": "宏恩兒科診所",
        "地址": "臺北市北投區致遠一路二段99號1樓",
        "緯度": 25.1128924,
        "經度": 121.5129316,
        "電話": "(02)28271110",
        "緯度.1": 25.1128924,
        "經度.1": 121.5129316,
        "district": "北投區"
      }
    },
    {
      "type": "Feature",
      "geometry": {
        "type": "Point",
        "coordinates": [
          121.5117188,
          25.1139611
        ]
      },
      "properties": {
        "行政區": 63000120,
        "院所": "診所",
        "機構類別": "基層診所",
        "院所名稱": "李伯匯小兒科診所",
        "地址": "臺北市北投區石牌路一段93號1樓",
        "緯度": 25.1139611,
        "經度": 121.5117188,
        "電話": "(02)28221212",
        "緯度.1": 25.1139611,
        "經度.1": 121.5117188,
        "district": "北投區"
      }
    },
    {
      "type": "Feature",
      "geometry": {
        "type": "Point",
        "coordinates": [
          121.5012176,
          25.1330638
        ]
      },
      "properties": {
        "行政區": 63000120,
        "院所": "診所",
        "機構類別": "基層診所",
        "院所名稱": "昱德聯合診所",
        "地址": "臺北市北投區光明路102號1樓",
        "緯度": 25.1330638,
        "經度": 121.5012176,
        "電話": "(02)28975050",
        "緯度.1": 25.1330638,
        "經度.1": 121.5012176,
        "district": "北投區"
      }
    },
    {
      "type": "Feature",
      "geometry": {
        "type": "Point",
        "coordinates": [
          121.500704,
          25.140165
        ]
      },
      "properties": {
        "行政區": 63000120,
        "院所": "診所",
        "機構類別": "基層診所",
        "院所名稱": "清田婦產科家醫科診所",
        "地址": "臺北市北投區中和街268號",
        "緯度": 25.140165,
        "經度": 121.500704,
        "電話": "(02)28931323",
        "緯度.1": 25.140165,
        "經度.1": 121.500704,
        "district": "北投區"
      }
    },
    {
      "type": "Feature",
      "geometry": {
        "type": "Point",
        "coordinates": [
          121.5197291,
          25.1097302
        ]
      },
      "properties": {
        "行政區": 63000120,
        "院所": "診所",
        "機構類別": "基層診所",
        "院所名稱": "陳信方小兒科診所",
        "地址": "臺北市北投區明德路106號",
        "緯度": 25.1097302,
        "經度": 121.5197291,
        "電話": "(02)28201068",
        "緯度.1": 25.1097302,
        "經度.1": 121.5197291,
        "district": "北投區"
      }
    },
    {
      "type": "Feature",
      "geometry": {
        "type": "Point",
        "coordinates": [
          121.5204832,
          25.1100718
        ]
      },
      "properties": {
        "行政區": 63000120,
        "院所": "診所",
        "機構類別": "基層診所",
        "院所名稱": "陳柏宏親子診所",
        "地址": "臺北市北投區明德路124號",
        "緯度": 25.1100718,
        "經度": 121.5204832,
        "電話": "(02)28225257",
        "緯度.1": 25.1100718,
        "經度.1": 121.5204832,
        "district": "北投區"
      }
    },
    {
      "type": "Feature",
      "geometry": {
        "type": "Point",
        "coordinates": [
          121.5013446,
          25.1314836
        ]
      },
      "properties": {
        "行政區": 63000120,
        "院所": "診所",
        "機構類別": "基層診所",
        "院所名稱": "陳獻明小兒科診所",
        "地址": "臺北市北投區中央南路一段69號1樓",
        "緯度": 25.1314836,
        "經度": 121.5013446,
        "電話": "(02)28928950",
        "緯度.1": 25.1314836,
        "經度.1": 121.5013446,
        "district": "北投區"
      }
    },
    {
      "type": "Feature",
      "geometry": {
        "type": "Point",
        "coordinates": [
          121.5152956,
          25.1142978
        ]
      },
      "properties": {
        "行政區": 63000120,
        "院所": "診所",
        "機構類別": "基層診所",
        "院所名稱": "黃正宏診所",
        "地址": "臺北市北投區西安街一段359號",
        "緯度": 25.1142978,
        "經度": 121.5152956,
        "電話": "(02)28217076",
        "緯度.1": 25.1142978,
        "經度.1": 121.5152956,
        "district": "北投區"
      }
    },
    {
      "type": "Feature",
      "geometry": {
        "type": "Point",
        "coordinates": [
          121.498289,
          25.135683
        ]
      },
      "properties": {
        "行政區": 63000120,
        "院所": "診所",
        "機構類別": "基層診所",
        "院所名稱": "黃浩魁小兒科診所",
        "地址": "臺北市北投區中央北路一段168號",
        "緯度": 25.135683,
        "經度": 121.498289,
        "電話": "(02)28983256",
        "緯度.1": 25.135683,
        "經度.1": 121.498289,
        "district": "北投區"
      }
    },
    {
      "type": "Feature",
      "geometry": {
        "type": "Point",
        "coordinates": [
          121.5003609,
          25.1402779
        ]
      },
      "properties": {
        "行政區": 63000120,
        "院所": "診所",
        "機構類別": "基層診所",
        "院所名稱": "蔡秉勳小兒科診所",
        "地址": "臺北市北投區中和街281號",
        "緯度": 25.1402779,
        "經度": 121.5003609,
        "電話": "(02)28966525",
        "緯度.1": 25.1402779,
        "經度.1": 121.5003609,
        "district": "北投區"
      }
    }
  ]
}