{
  "type": "FeatureCollection",
  "features": [
    {
      "type": "Feature",
      "geometry": {
        "type": "Point",
        "coordinates": [
          121.4574246,
          25.0232911
        ]
      },
      "properties": {
        "總編號": 1,
        "縣市": "新北市",
        "城市編號": 1,
        "機構名稱": "新北市立聯合醫院(板橋院區)",
        "區號": 220,
        "地址": "新北市板橋區英士路198號",
        "緯度": 25.0232911,
        "經度": 121.4574246,
        "電話": "02-29829111#6070",
        "執行酒癮治療費用補助方案": "V",
        "執行酒駕酒癮評估": "V",
        "緯度.1": 25.0232911,
        "經度.1": 121.4574246,
        "district": "板橋區"
      }
    },
    {
      "type": "Feature",
      "geometry": {
        "type": "Point",
        "coordinates": [
          121.4532954,
          24.997236
        ]
      },
      "properties": {
        "總編號": 2,
        "城市編號": 2,
        "機構名稱": "醫療財團法人徐元智先生醫藥基金會亞東紀念醫院",
        "區號": 220,
        "地址": "新北市板橋區南雅南路二段21號 ",
        "緯度": 24.997236,
        "經度": 121.4532954,
        "電話": "02-77282186或02-77282885",
        "執行酒癮治療費用補助方案": "V",
        "執行酒駕酒癮評估": "V",
        "緯度.1": 24.997236,
        "經度.1": 121.4532954,
        "district": "板橋區"
      }
    },
    {
      "type": "Feature",
      "geometry": {
        "type": "Point",
        "coordinates": [
          121.6609281,
          25.0729852
        ]
      },
      "properties": {
        "總編號": 3,
        "城市編號": 3,
        "機構名稱": "國泰醫療財團法人汐止國泰綜合醫院",
        "區號": 221,
        "地址": "新北市汐止區建成路59巷2號",
        "緯度": 25.0729852,
        "經度": 121.6609281,
        "電話": "02-26482121#3618",
        "執行酒癮治療費用補助方案": "V",
        "執行酒駕酒癮評估": "V",
        "緯度.1": 25.0729852,
        "經度.1": 121.6609281,
        "district": "汐止區"
      }
    },
    {
      "type": "Feature",
      "geometry": {
        "type": "Point",
        "coordinates": [
          121.5474862,
          24.9752824
        ]
      },
      "properties": {
        "總編號": 4,
        "城市編號": 4,
        "機構名稱": "楊聰才診所",
        "區號": 231,
        "地址": "新北市新店區中興路2段239號2樓",
        "緯度": 24.9752824,
        "經度": 121.5474862,
        "電話": "0939-590-509",
        "執行酒癮治療費用補助方案": "V",
        "緯度.1": 24.9752824,
        "經度.1": 121.5474862,
        "district": "新店區"
      }
    },
    {
      "type": "Feature",
      "geometry": {
        "type": "Point",
        "coordinates": [
          121.5355355,
          24.9861221
        ]
      },
      "properties": {
        "總編號": 5,
        "城市編號": 5,
        "機構名稱": "佛教慈濟醫療財團法人臺北慈濟醫院",
        "區號": 231,
        "地址": "新北市新店區建國路289號",
        "緯度": 24.9861221,
        "經度": 121.5355355,
        "電話": "02-66289779#3868",
        "執行酒癮治療費用補助方案": "V",
        "執行酒駕酒癮評估": "V",
        "緯度.1": 24.9861221,
        "經度.1": 121.5355355,
        "district": "新店區"
      }
    },
    {
      "type": "Feature",
      "geometry": {
        "type": "Point",
        "coordinates": [
          121.5359298,
          24.9763593
        ]
      },
      "properties": {
        "總編號": 6,
        "城市編號": 6,
        "機構名稱": "天主教耕莘醫療財團法人耕莘醫院",
        "區號": 231,
        "地址": "新北市新店區中正路362號",
        "緯度": 24.9763593,
        "經度": 121.5359298,
        "電話": "02-22193391#66908",
        "執行酒癮治療費用補助方案": "V",
        "執行酒駕酒癮評估": "V",
        "緯度.1": 24.9763593,
        "經度.1": 121.5359298,
        "district": "新店區"
      }
    },
    {
      "type": "Feature",
      "geometry": {
        "type": "Point",
        "coordinates": [
          121.4936559,
          24.9927442
        ]
      },
      "properties": {
        "總編號": 7,
        "城市編號": 7,
        "機構名稱": "衛生福利部雙和醫院(委託臺北醫學大學興建經營)",
        "區號": 235,
        "地址": "新北市中和區中正路291號",
        "緯度": 24.9927442,
        "經度": 121.4936559,
        "電話": "02-22490088",
        "執行酒癮治療費用補助方案": "V",
        "執行酒駕酒癮評估": "V",
        "緯度.1": 24.9927442,
        "經度.1": 121.4936559,
        "district": "中和區"
      }
    },
    {
      "type": "Feature",
      "geometry": {
        "type": "Point",
        "coordinates": [
          121.4600018,
          24.9895233
        ]
      },
      "properties": {
        "總編號": 8,
        "城市編號": 8,
        "機構名稱": "衛生福利部八里療養院(土城門診)",
        "區號": 236,
        "地址": "新北市土城區青雲路6號1樓",
        "緯度": 24.9895233,
        "經度": 121.4600018,
        "電話": "02-22745250",
        "執行酒癮治療費用補助方案": "V",
        "執行酒駕酒癮評估": "V",
        "緯度.1": 24.9895233,
        "經度.1": 121.4600018,
        "district": "土城區"
      }
    },
    {
      "type": "Feature",
      "geometry": {
        "type": "Point",
        "coordinates": [
          121.4902027,
          25.0609301
        ]
      },
      "properties": {
        "總編號": 9,
        "城市編號": 9,
        "機構名稱": "新北市立聯合醫院(三重院區)",
        "區號": 241,
        "地址": "新北市三重區新北大道一段3號",
        "緯度": 25.0609301,
        "經度": 121.4902027,
        "電話": "02-29829111#6070",
        "執行酒癮治療費用補助方案": "V",
        "執行酒駕酒癮評估": "V",
        "緯度.1": 25.0609301,
        "經度.1": 121.4902027,
        "district": "三重區"
      }
    },
    {
      "type": "Feature",
      "geometry": {
        "type": "Point",
        "coordinates": [
          121.4917119,
          25.0597708
        ]
      },
      "properties": {
        "總編號": 10,
        "城市編號": 10,
        "機構名稱": "安興精神科診所",
        "區號": 241,
        "地址": "新北市三重區重新路三段132號",
        "緯度": 25.0597708,
        "經度": 121.4917119,
        "電話": "02-29743029",
        "執行酒癮治療費用補助方案": "V",
        "緯度.1": 25.0597708,
        "經度.1": 121.4917119,
        "district": "三重區"
      }
    },
    {
      "type": "Feature",
      "geometry": {
        "type": "Point",
        "coordinates": [
          121.4609055,
          25.0492987
        ]
      },
      "properties": {
        "總編號": 11,
        "城市編號": 11,
        "機構名稱": "恆友精神科診所",
        "區號": 242,
        "地址": "新北市新莊區幸福東路135號",
        "緯度": 25.0492987,
        "經度": 121.4609055,
        "電話": "02-22907909",
        "執行酒癮治療費用補助方案": "V",
        "緯度.1": 25.0492987,
        "經度.1": 121.4609055,
        "district": "新莊區"
      }
    },
    {
      "type": "Feature",
      "geometry": {
        "type": "Point",
        "coordinates": [
          121.4314868,
          25.0404811
        ]
      },
      "properties": {
        "總編號": 12,
        "城市編號": 12,
        "機構名稱": "天主教輔仁大學附設醫院",
        "區號": 243,
        "地址": "新北市泰山區貴子路69號",
        "緯度": 25.0404811,
        "經度": 121.4314868,
        "電話": "02-85128888#25269",
        "執行酒癮治療費用補助方案": "V",
        "執行酒駕酒癮評估": "V",
        "緯度.1": 25.0404811,
        "經度.1": 121.4314868,
        "district": "泰山區"
      }
    },
    {
      "type": "Feature",
      "geometry": {
        "type": "Point",
        "coordinates": [
          121.4611268,
          25.138576
        ]
      },
      "properties": {
        "總編號": 13,
        "城市編號": 13,
        "機構名稱": "台灣基督長老教會馬偕醫療財團法人馬偕紀念醫院(淡水院區)",
        "區號": 251,
        "地址": "新北市淡水區民權路47號",
        "緯度": 25.138576,
        "經度": 121.4611268,
        "電話": "02-28094661#2727",
        "執行酒癮治療費用補助方案": "V",
        "緯度.1": 25.138576,
        "經度.1": 121.4611268,
        "district": "淡水區"
      }
    },
    {
      "type": "Feature",
      "geometry": {
        "type": "Point",
        "coordinates": [
          121.5223977,
          25.0588457
        ]
      },
      "properties": {
        "總編號": 14,
        "縣市": "臺北市",
        "城市編號": 1,
        "機構名稱": "台灣基督長老教會馬偕醫療財團法人馬偕紀念醫院(臺北院區)",
        "區號": 104,
        "地址": "臺北市中山區中山北路二段92號",
        "緯度": 25.0588457,
        "經度": 121.5223977,
        "電話": "02-25433535#3683",
        "執行酒癮治療費用補助方案": "V",
        "執行酒駕酒癮評估": "V",
        "緯度.1": 25.0588457,
        "經度.1": 121.5223977,
        "district": "中山區"
      }
    },
    {
      "type": "Feature",
      "geometry": {
        "type": "Point",
        "coordinates": [
          121.5493054,
          25.0556512
        ]
      },
      "properties": {
        "總編號": 15,
        "城市編號": 2,
        "機構名稱": "財團法人長庚紀念醫院(臺北院區)",
        "區號": 105,
        "地址": "臺北市松山區敦化北路199號",
        "緯度": 25.0556512,
        "經度": 121.5493054,
        "電話": "03-3281200#5102",
        "執行酒癮治療費用補助方案": "V",
        "執行酒駕酒癮評估": "V",
        "緯度.1": 25.0556512,
        "經度.1": 121.5493054,
        "district": "松山區"
      }
    },
    {
      "type": "Feature",
      "geometry": {
        "type": "Point",
        "coordinates": [
          121.5638256,
          25.0565326
        ]
      },
      "properties": {
        "總編號": 16,
        "城市編號": 3,
        "機構名稱": "李政洋身心診所",
        "區號": 105,
        "地址": "臺北市松山區三民路84號",
        "緯度": 25.0565326,
        "經度": 121.5638256,
        "電話": "02-27620086或0976-065477",
        "執行酒癮治療費用補助方案": "V",
        "緯度.1": 25.0565326,
        "經度.1": 121.5638256,
        "district": "松山區"
      }
    },
    {
      "type": "Feature",
      "geometry": {
        "type": "Point",
        "coordinates": [
          121.5547681,
          25.0364269
        ]
      },
      "properties": {
        "總編號": 17,
        "城市編號": 4,
        "機構名稱": "國泰醫療財團法人國泰綜合醫院",
        "區號": 106,
        "地址": "臺北市仁愛路四段280號",
        "緯度": 25.0364269,
        "經度": 121.5547681,
        "電話": "02-26482121#3619",
        "執行酒癮治療費用補助方案": "V",
        "執行酒駕酒癮評估": "V",
        "緯度.1": 25.0364269,
        "經度.1": 121.5547681
      }
    },
    {
      "type": "Feature",
      "geometry": {
        "type": "Point",
        "coordinates": [
          121.5495463,
          25.0334604
        ]
      },
      "properties": {
        "總編號": 18,
        "城市編號": 5,
        "機構名稱": "交感身心診所",
        "區號": 106,
        "地址": "臺北市大安區信義路四段143號4樓",
        "緯度": 25.0334604,
        "經度": 121.5495463,
        "電話": "02-77306840",
        "執行酒癮治療費用補助方案": "V",
        "緯度.1": 25.0334604,
        "經度.1": 121.5495463,
        "district": "大安區"
      }
    },
    {
      "type": "Feature",
      "geometry": {
        "type": "Point",
        "coordinates": [
          121.5355866,
          25.0417076
        ]
      },
      "properties": {
        "總編號": 19,
        "城市編號": 6,
        "機構名稱": "中崙諮商中心心理諮商所",
        "區號": 106,
        "地址": "臺北市大安區忠孝東路三段54號4樓-1",
        "緯度": 25.0417076,
        "經度": 121.5355866,
        "電話": "02-27319731",
        "執行酒癮治療費用補助方案": "V",
        "緯度.1": 25.0417076,
        "經度.1": 121.5355866,
        "district": "大安區"
      }
    },
    {
      "type": "Feature",
      "geometry": {
        "type": "Point",
        "coordinates": [
          121.563012,
          25.0269555
        ]
      },
      "properties": {
        "總編號": 20,
        "城市編號": 7,
        "機構名稱": "臺北醫學大學附設醫院",
        "區號": 110,
        "地址": "臺北市信義區吳興街252號",
        "緯度": 25.0269555,
        "經度": 121.563012,
        "電話": "02-27372181#1217",
        "執行酒癮治療費用補助方案": "V",
        "執行酒駕酒癮評估": "V",
        "緯度.1": 25.0269555,
        "經度.1": 121.563012,
        "district": "信義區"
      }
    },
    {
      "type": "Feature",
      "geometry": {
        "type": "Point",
        "coordinates": [
          121.5745193,
          25.0292132
        ]
      },
      "properties": {
        "總編號": 21,
        "城市編號": 8,
        "機構名稱": "臺北市立聯合醫院(松德院區)",
        "區號": 110,
        "地址": "臺北市信義區松德路309號",
        "緯度": 25.0292132,
        "經度": 121.5745193,
        "電話": "02-27285791",
        "執行酒癮治療費用補助方案": "V",
        "執行酒駕酒癮評估": "V",
        "緯度.1": 25.0292132,
        "經度.1": 121.5745193,
        "district": "信義區"
      }
    },
    {
      "type": "Feature",
      "geometry": {
        "type": "Point",
        "coordinates": [
          121.5227627,
          25.1208483
        ]
      },
      "properties": {
        "總編號": 22,
        "城市編號": 9,
        "機構名稱": "臺北榮民總醫院",
        "區號": 112,
        "地址": "臺北市北投區石牌路二段201號",
        "緯度": 25.1208483,
        "經度": 121.5227627,
        "電話": "02-2875-7027#101",
        "執行酒癮治療費用補助方案": "V",
        "執行酒駕酒癮評估": "V",
        "緯度.1": 25.1208483,
        "經度.1": 121.5227627,
        "district": "北投區"
      }
    },
    {
      "type": "Feature",
      "geometry": {
        "type": "Point",
        "coordinates": [
          121.4661496,
          25.1206037
        ]
      },
      "properties": {
        "總編號": 23,
        "城市編號": 10,
        "機構名稱": "臺北市立關渡醫院",
        "區號": 112,
        "地址": "臺北市北投區知行路225巷12號",
        "緯度": 25.1206037,
        "經度": 121.4661496,
        "電話": "02-28587151",
        "執行酒癮治療費用補助方案": "V",
        "執行酒駕酒癮評估": "V",
        "緯度.1": 25.1206037,
        "經度.1": 121.4661496,
        "district": "北投區"
      }
    },
    {
      "type": "Feature",
      "geometry": {
        "type": "Point",
        "coordinates": [
          121.520938,
          25.0964085
        ]
      },
      "properties": {
        "總編號": 24,
        "城市編號": 11,
        "機構名稱": "新光醫療財團法人新光吳火獅紀念醫院",
        "區號": 111,
        "地址": "臺北市士林區文昌路95號",
        "緯度": 25.0964085,
        "經度": 121.520938,
        "電話": "02-28332211#8466",
        "執行酒癮治療費用補助方案": "V",
        "執行酒駕酒癮評估": "V",
        "緯度.1": 25.0964085,
        "經度.1": 121.520938,
        "district": "士林區"
      }
    },
    {
      "type": "Feature",
      "geometry": {
        "type": "Point",
        "coordinates": [
          121.5959272,
          25.0733691
        ]
      },
      "properties": {
        "總編號": 25,
        "城市編號": 12,
        "機構名稱": "三軍總醫院附設民眾診療服務處",
        "區號": 114,
        "地址": "臺北市內湖區成功路二段325號",
        "緯度": 25.0733691,
        "經度": 121.5959272,
        "電話": "02-87923311#17398",
        "執行酒癮治療費用補助方案": "V",
        "執行酒駕酒癮評估": "V",
        "緯度.1": 25.0733691,
        "經度.1": 121.5959272,
        "district": "內湖區"
      }
    },
    {
      "type": "Feature",
      "geometry": {
        "type": "Point",
        "coordinates": [
          121.5584967,
          25.0004801
        ]
      },
      "properties": {
        "總編號": 26,
        "城市編號": 13,
        "機構名稱": "臺北市立萬芳醫院",
        "區號": 116,
        "地址": "臺北市文山區興隆路三段111號",
        "緯度": 25.0004801,
        "經度": 121.5584967,
        "電話": "02-29307930#1281",
        "執行酒癮治療費用補助方案": "V",
        "執行酒駕酒癮評估": "V",
        "緯度.1": 25.0004801,
        "經度.1": 121.5584967,
        "district": "文山區"
      }
    },
    {
      "type": "Feature",
      "geometry": {
        "type": "Point",
        "coordinates": [
          121.5592328,
          24.9886177
        ]
      },
      "properties": {
        "總編號": 27,
        "城市編號": 14,
        "機構名稱": "利伯他茲心理諮商所",
        "區號": 116,
        "地址": "臺北市文山區木柵路二段62號2樓",
        "緯度": 24.9886177,
        "經度": 121.5592328,
        "電話": "02-2936-1183",
        "執行酒癮治療費用補助方案": "V",
        "緯度.1": 24.9886177,
        "經度.1": 121.5592328,
        "district": "文山區"
      }
    }
  ]
}